MIDORI II (ADEOS-II)    
1 27597U 02056A   24261.56833582  .00001739  00000+0  71107-3 0  9996
2 27597  98.6988 207.9145 0002064 103.7229 256.4182 14.28549806133444
H-2A R/B                
1 27601U 02056E   24261.54844469  .00002064  00000+0  74791-3 0  9990
2 27601  98.2413 234.0891 0070319 327.0664 141.4629 14.33026501137014
CZ-4B R/B               
1 28059U 03049C   24261.61312642  .00002414  00000+0  57442-3 0  9995
2 28059  98.6218 226.6474 0050292  74.4687 286.2054 14.54022267108374
CZ-2C R/B               
1 28222U 04012C   24261.58008014  .00060614  00000+0  20527-2 0  9998
2 28222  97.8014 278.8496 0034153  87.6938 272.8211 15.29794129121206
SL-16 R/B               
1 28353U 04021B   24261.52520259  .00000677  00000+0  37794-3 0  9995
2 28353  70.9992 281.7657 0004014 159.5435 200.5848 14.14454949 46738
CZ-4B R/B               
1 28415U 04035C   24261.57296171  .00031502  00000+0  15226-2 0  9993
2 28415  97.4168 293.2651 0042462  63.8347 296.7245 15.17749771 97969
CZ-2C R/B               
1 28480U 04046B   24261.54029613  .00001316  00000+0  50870-3 0  9994
2 28480  98.1677 199.5994 0139311 306.6147  52.2287 14.26526303 31768
ARIANE 5 R/B            
1 28499U 04049H   24261.64408730  .00004750  00000+0  55372-3 0  9996
2 28499  98.1976  41.8453 0086364 294.2555  64.9652 14.83067245 65977
CZ-2D R/B               
1 28738U 05024B   24261.55683508  .00057798  00000+0  19970-2 0  9997
2 28738  97.3674 259.0065 0009311 158.0357 202.1284 15.29681273 56763
SUZAKU (ASTRO-EII)      
1 28773U 05025A   24261.30789578  .00208741  00000+0  26902-2 0  9993
2 28773  31.3843 229.4821 0005201 220.8412 139.1857 15.57249677 61303
ALOS (DAICHI)           
1 28931U 06002A   24261.42677874  .00009922  00000+0  17930-2 0  9994
2 28931  98.0445 212.5942 0001630 117.1043 243.0328 14.66603859994492
H-2A R/B                
1 28932U 06002B   24261.23336731  .00031273  00000+0  21909-2 0  9993
2 28932  98.1996 358.1888 0067272 258.5906 100.7756 15.03310461 13158
RESURS-DK 1             
1 29228U 06021A   24261.50652077  .00011493  00000+0  74673-3 0  9996
2 29228  69.9362 184.8292 0007222 245.5297 114.5114 15.08188546  6246
GENESIS 1               
1 29252U 06029A   24261.57583488  .00099001  00000+0  20478-2 0  9991
2 29252  64.5122 212.9875 0032170 311.3435  48.4934 15.44685916  4835
CZ-4B R/B               
1 29507U 06046C   24261.56900256  .00021061  00000+0  13051-2 0  9998
2 29507  97.6361 297.1277 0037725 323.6930  36.1740 15.09181868978644
CZ-2C R/B               
1 31114U 07010B   24261.64365398  .00000855  00000+0  41399-3 0  9993
2 31114  98.3459  32.3765 0060262  59.9489 300.7648 14.19893006903355
COSMO-SKYMED 1          
1 31598U 07023A   24261.55783873  .00002812  00000+0  35951-3 0  9997
2 31598  97.8896  83.3639 0001365  89.4356 270.7014 14.82166196934806
GENESIS 2               
1 31789U 07028A   24261.40483051  .00080564  00000+0  18348-2 0  9993
2 31789  64.4856 259.8176 0012418 244.9656 115.0190 15.42397475951619
COSMOS 2428             
1 31792U 07029A   24261.38963917  .00000581  00000+0  33856-3 0  9992
2 31792  70.9323 253.2575 0010385 280.4302  79.5648 14.12727297888064
SL-16 R/B               
1 31793U 07029B   24261.38560694  .00000587  00000+0  32961-3 0  9990
2 31793  70.9749 223.8218 0001894 272.9313 245.4727 14.14675271889235
KORONAS-FOTON           
1 33504U 09003A   24261.58089706  .00024821  00000+0  88999-3 0  9997
2 33504  82.4335 109.1709 0013100 277.9198  82.0554 15.28506816863123
CZ-2C R/B               
1 37731U 11030B   24261.47390782  .00008915  00000+0  12011-2 0  9990
2 37731  97.7737 222.0814 0053756 301.8304 170.3852 14.78387636710486
H-2A R/B                
1 38341U 12025E   24261.53763225  .00016032  00000+0  16427-2 0  9990
2 38341  98.4176 178.9194 0047647 268.4120  91.1637 14.89714725667932
CUSAT 2 & FALCON 9 R/B  
1 39271U 13055G   24261.59245766  .00230639  11496-4  19111-2 0  9998
2 39271  80.9262 326.6223 0238304 352.4320   7.3343 15.41344806579517
SHIJIAN-16 (SJ-16)      
1 39358U 13057A   24261.62565689  .00004530  00000+0  47678-3 0  9992
2 39358  74.9719 121.8600 0017101 332.2871  27.7403 14.89521607591305
SL-4 R/B                
1 39679U 14021B   24261.61371528  .00030608  00000+0  10413-2 0  9997
2 39679  51.6035  50.3434 0130945 325.6815  33.5752 15.22288591573831
ALOS-2                  
1 39766U 14029A   24261.56429885  .00013356  00000+0  17909-2 0  9994
2 39766  97.9231 356.8828 0001623  97.0645 263.0751 14.79492980557304
SL-27 R/B               
1 40354U 14084B   24261.56396298  .00473638  98319-4  92160-3 0  9992
2 40354  74.7157   5.2904 0004708  95.8800 264.2980 16.00157257548774
YAOGAN-29               
1 41038U 15069A   24261.55255377  .00002380  00000+0  30709-3 0  9995
2 41038  98.0548 276.5095 0000684  12.5048 347.6182 14.81951797476149
ASTRO-H (HITOMI)        
1 41337U 16012A   24261.56499701  .00015718  00000+0  10767-2 0  9998
2 41337  31.0010 217.3529 0010698 333.6209  26.3882 15.04870410470947
HXMT (HUIYAN)           
1 42758U 17034A   24261.57426747  .00034396  00000+0  17199-2 0  9991
2 42758  43.0134 122.8151 0011793   5.3988 354.6985 15.16794488400857
CZ-2C R/B               
1 43521U 18054D   24261.27455306  .00063215  00000+0  18574-2 0  9993
2 43521  35.1434 251.9205 0054354 246.3714 113.1293 15.32516489344981
SAOCOM 1A               
1 43641U 18076A   24261.56642823  .00002417  00000+0  31012-3 0  9994
2 43641  97.8899  86.4653 0001414  91.5153 268.6222 14.82155540321656
H-2A R/B                
1 43682U 18084L   24261.55258978  .00057758  00000+0  27509-2 0  9994
2 43682  98.8527   4.2715 0041669  61.5406 299.0012 15.18138033323498
SAOCOM 1B               
1 46265U 20059A   24261.53013694  .00003044  00000+0  38901-3 0  9999
2 46265  97.8899  85.5259 0001491  93.6698 266.4686 14.82135710219030
CSS (TIANHE)            
1 48274U 21035A   24261.35892625  .00061152  00000+0  62232-3 0  9993
2 48274  41.4675 241.1258 0002629 170.8533 189.2355 15.64228168193518
COSMOS 2550             
1 48865U 21056A   24261.35925030 -.00000183  00000+0  27038-6 0  9995
2 48865  67.1393 229.4796 0008326 269.6855  90.3346 15.33831633180900
CZ-2C R/B               
1 52794U 22058K   24261.09786112  .00024351  00000+0  85351-3 0  9992
2 52794  50.1985 148.6926 0076649 140.9120 219.7412 15.26500573127147
XRISM                   
1 57800U 23137A   24261.01204086  .00010826  00000+0  78277-3 0  9992
2 57800  31.0031 147.5070 0009356  34.0242 326.0992 15.02798243 56421
ACS3                    
1 59588U 24077B   24261.56140796  .00083743  00000+0  95302-1 0  9992
2 59588  97.4227 308.2879 0042726 215.9139 143.9139 13.69054274 20032
SZ-17 MODULE            
1 59624U 23164C   24261.39172550  .00183701  00000+0  10811-2 0  9991
2 59624  41.4730 234.1940 0010660 190.6522 169.4098 15.76784721 22030
